ONEWEB-0069             
1 45430U 20020G   23059.56488562 -.00000081  00000+0 -26332-3 0  9992
2 45430  87.8798 260.3884 0001338  90.7456 269.3825 13.11414304144783
ONEWEB-0069             
1 45430U 20020G   23059.56488562 -.00000081  00000+0 -26332-3 0  9992
2 45430  87.8798 260.3884 0001338  90.7456 269.3825 13.11414304144794
ONEWEB-0069             
1 45430U 20020G   23059.79377634  .00000023  00000+0  30214-4 0  9993
2 45430  87.8800 260.3426 0001364  91.4778 268.6506 13.11414511144815
ONEWEB-0069             
1 45430U 20020G   23060.78563773  .00000204  00000+0  53869-3 0  9996
2 45430  87.8799 260.1445 0001349  92.2792 267.8490 13.11414842144943
ONEWEB-0069             
1 45430U 20020G   23060.78563773  .00000204  00000+0  53869-3 0  9996
2 45430  87.8799 260.1445 0001349  92.2792 267.8490 13.11414842144954
ONEWEB-0069             
1 45430U 20020G   23061.77749817  .00000440  00000+0  12051-2 0  9990
2 45430  87.8800 259.9465 0001326  92.5223 267.6057 13.11415724145073
ONEWEB-0069             
1 45430U 20020G   23062.23528021  .00000528  00000+0  14531-2 0  9996
2 45430  87.8799 259.8551 0001319  92.8780 267.2499 13.11415513145148
ONEWEB-0069             
1 45430U 20020G   23062.46417133  .00000496  00000+0  13646-2 0  9992
2 45430  87.8799 259.8094 0001320  93.0810 267.0469 13.11415437145161
ONEWEB-0069             
1 45430U 20020G   23062.84565531  .00000549  00000+0  15139-2 0  9998
2 45430  87.8799 259.7332 0001312  93.3629 266.7649 13.11416342145215
